COSMOS 2419 (714)       
1 28915U 05050A   16246.23125645 -.00000000  00000-0  00000+0 0  9992
2 28915  65.3535  75.5635 0015051 359.4247 206.2801  2.13106604 83194
COSMOS 2425 (716)       
1 29670U 06062A   16248.86737248 -.00000038  00000-0  10000-3 0  9990
2 29670  65.5965 314.4776 0019841 341.5539 142.4564  2.13104944 75452
COSMOS 2426 (717)       
1 29671U 06062B   16249.45009736 -.00000039  00000-0  10000-3 0  9992
2 29671  65.6138 314.5413 0018765 169.1138 262.2732  2.13102929 75479
COSMOS 2424 (715)       
1 29672U 06062C   16249.19492546 -.00000039  00000-0  10000-3 0  9999
2 29672  65.5985 314.4760 0018115 168.2343 243.5398  2.13102366 75464
COSMOS 2433 (720)       
1 32275U 07052A   16249.50134104 -.00000005  00000-0  10000-3 0  9993
2 32275  65.3724  75.2247 0000626 208.9232 233.5326  2.13104729 68989
COSMOS 2432 (719)       
1 32276U 07052B   16248.74818039 -.00000007  00000-0  10000-3 0  9997
2 32276  65.3848  75.3173 0010631 347.5812 190.7224  2.13104139 68961
COSMOS 2434 (721)       
1 32393U 07065A   16248.79482339 -.00000038  00000-0  00000-0 0  9996
2 32393  65.2137 313.7643 0004342 138.3036  13.5898  2.13102909 67677
COSMOS 2436 (723)       
1 32395U 07065C   16248.56117315 -.00000037  00000-0  10000-3 0  9995
2 32395  65.2270 313.8165 0015177 349.7573  74.9097  2.13102916 67602
COSMOS 2443 (725)       
1 33379U 08046B   16248.70913418 -.00000008  00000-0  10000-3 0  9990
2 33379  65.3043  74.6601 0017039 179.7555 279.0173  2.13101107 61834
COSMOS 2456 (730)       
1 36111U 09070A   16249.45893760  .00000024  00000-0  00000+0 0  9997
2 36111  64.1824 193.3157 0005852 301.2987 169.9914  2.13102949 52353
COSMOS 2457 (733)       
1 36112U 09070B   16248.75990657  .00000020  00000-0  00000-0 0  9990
2 36112  64.1650 193.2651 0006570 184.2828 240.6164  2.13101697 52342
COSMOS 2458 (734)       
1 36113U 09070C   16248.67196582  .00000019  00000-0  10000-3 0  9999
2 36113  64.1702 193.2742 0002144 301.6694 103.3824  2.13101890 52344
COSMOS 2459 (731)       
1 36400U 10007A   16249.31660903 -.00000006  00000-0  10000-3 0  9992
2 36400  65.2830  74.3723 0027521 357.5887 167.8120  2.13102257 50705
COSMOS 2461 (735)       
1 36401U 10007B   16248.81104383 -.00000008  00000-0  10000-3 0  9994
2 36401  65.2751  74.3692 0008493  77.0316 331.1131  2.13102337 50696
COSMOS 2460 (732)       
1 36402U 10007C   16249.17196420 -.00000007  00000-0  10000-3 0  9997
2 36402  65.2658  74.3342 0002320  94.1790 272.5604  2.13101829 50704
COSMOS 2465 (737)       
1 37138U 10041B   16248.65693359 -.00000039  00000-0  00000+0 0  9997
2 37138  64.8140 313.9023 0036989 173.3315 275.8390  2.13103351 46762
COSMOS 2464 (736)       
1 37139U 10041C   16249.24466940 -.00000040  00000-0  00000+0 0  9990
2 37139  64.8205 313.8780 0020678  10.9215 353.7786  2.13102638 46781
COSMOS 2471 (701K)      
1 37372U 11009A   16249.26341282 -.00000006  00000-0  00000+0 0  9999
2 37372  65.2613  74.2792 0006661 224.4991 345.2532  2.13102783 42971
COSMOS 2474 (742)       
1 37829U 11055A   16248.65800490  .00000020  00000-0  00000+0 0  9995
2 37829  64.5065 193.7888 0010066 253.7970 184.1046  2.13101926 38333
COSMOS 2476 (744)       
1 37867U 11064A   16248.69058817  .00000020  00000-0  00000-0 0  9990
2 37867  64.4865 193.8663 0019012 247.8227 260.9397  2.13101986 37688
COSMOS 2477 (745)       
1 37868U 11064B   16248.63213117  .00000019  00000-0  00000-0 0  9999
2 37868  64.4954 193.9101 0017011 249.2019  33.9835  2.13101905 37639
COSMOS 2475 (743)       
1 37869U 11064C   16248.69805928  .00000020  00000-0  00000-0 0  9995
2 37869  64.5026 193.8956 0022309 273.5861  16.3680  2.13102193 37643
COSMOS 2485 (747)       
1 39155U 13019A   16248.57422522  .00000019  00000-0  00000+0 0  9996
2 39155  64.6563 193.8384 0019294 242.7725 221.8312  2.13102080 26155
COSMOS 2492 (754)       
1 39620U 14012A   16248.80027130 -.00000008  00000-0  10000-3 0  9993
2 39620  65.1565  74.3233 0013958 340.0250 331.4424  2.13103389 19104
COSMOS 2500 (755)       
1 40001U 14032A   16249.05124271 -.00000007  00000-0  00000+0 0  9996
2 40001  65.0970  74.3338 0005638 184.1921 183.4361  2.13102924 17334
COSMOS 2501 (702K)      
1 40315U 14075A   16248.92455772 -.00000041  00000-0  00000-0 0  9998
2 40315  64.5857 315.3218 0018835 232.1099 199.2037  2.13101679 13739
COSMOS 2514 (751)       
1 41330U 16008A   16248.72108388 -.00000009  00000-0  00000-0 0  9994
2 41330  64.8954  74.5599 0008441 200.6896  92.8883  2.13103444  4482
COSMOS 2516 (753)       
1 41554U 16032A   16249.48146337 -.00000042  00000-0  00000+0 0  9995
2 41554  64.7664 314.9976 0013409 220.9654 190.2798  2.13101512  2114
